NORAD_CAT_ID,OBJECT_NAME,OBJECT_TYPE,EPOCH,MEAN_MOTION,ECCENTRICITY,INCLINATION,RA_OF_ASC_NODE,ARG_OF_PERICENTER,MEAN_ANOMALY,BSTAR,MEAN_MOTION_DOT,MEAN_MOTION_DDOT,TLE_LINE0,TLE_LINE1,TLE_LINE2,SEMIMAJOR_AXIS,PERIOD,APOGEE,PERIGEE,DECAYED
53986.0,STARLINK-5119,PAYLOAD,2024-01-15 13:56:18,15.08845358,0.0001407,53.2159,123.8037,79.1421,280.973,0.00012748,1.742e-05,0.0,0 STARLINK-5119,1 53986U 22125Y   24015.58077526  .00001742  00000-0  12748-3 0  9994,2 53986  53.2159 123.8037 0001407  79.1421 280.9730 15.08845358 71226,6917.864,95.437,540.702,538.756,0.0
53986.0,STARLINK-5119,PAYLOAD,2024-01-16 12:11:43,15.08844595,0.0001479,53.2169,119.6374,101.7447,258.3711,-4.0377e-05,-9.31e-06,0.0,0 STARLINK-5119,1 53986U 22125Y   24016.50814008 -.00000931  00000-0 -40377-4 0  9992,2 53986  53.2169 119.6374 0001479 101.7447 258.3711 15.08844595 71447,6917.866,95.437,540.754,538.708,0.0
53986.0,STARLINK-5119,PAYLOAD,2024-01-16 13:47:06,15.08846453,0.0001421,53.2169,119.3403,94.2266,265.8889,-1.8629e-05,-5.84e-06,0.0,0 STARLINK-5119,1 53986U 22125Y   24016.57437855 -.00000584  00000-0 -18629-4 0  9999,2 53986  53.2169 119.3403 0001421  94.2266 265.8889 15.08846453 71375,6917.861,95.437,540.709,538.743,0.0
53986.0,STARLINK-5119,PAYLOAD,2024-01-16 15:22:29,15.08848461,0.000148,53.2172,119.0426,104.4501,255.6656,-1.8435e-06,-3.17e-06,0.0,0 STARLINK-5119,1 53986U 22125Y   24016.64061637 -.00000317  00000-0 -18435-5 0  9998,2 53986  53.2172 119.0426 0001480 104.4501 255.6656 15.08848461 71383,6917.855,95.437,540.743,538.696,0.0
53986.0,STARLINK-5119,PAYLOAD,2024-01-17 12:02:30,15.08837777,0.0001476,53.2154,115.1785,107.4411,252.6743,1.0187e-05,-1.26e-06,0.0,0 STARLINK-5119,1 53986U 22125Y   24017.50174131 -.00000126  00000-0  10187-4 0  9990,2 53986  53.2154 115.1785 0001476 107.4411 252.6743 15.08837777 71513,6917.887,95.438,540.773,538.731,0.0
53986.0,STARLINK-5119,PAYLOAD,2024-01-18 11:53:16,15.08852393,0.0001439,53.216,110.7168,98.1685,261.947,0.00023687,3.485e-05,0.0,0 STARLINK-5119,1 53986U 22125Y   24018.49533486  .00003485  00000-0  23687-3 0  9999,2 53986  53.2160 110.7168 0001439  98.1685 261.9470 15.08852393 71740,6917.843,95.437,540.703,538.712,0.0
53986.0,STARLINK-5119,PAYLOAD,2024-01-18 13:28:39,15.08863857,0.0001536,53.2165,110.4179,83.1803,276.9363,0.00040357,6.145e-05,0.0,0 STARLINK-5119,1 53986U 22125Y   24018.56157021  .00006145  00000-0  40357-3 0  9993,2 53986  53.2165 110.4179 0001536  83.1803 276.9363 15.08863857 71674,6917.807,95.436,540.735,538.61,0.0
53986.0,STARLINK-5119,PAYLOAD,2024-01-18 15:04:02,15.08866185,0.0001499,53.2162,110.1203,106.3994,253.7163,0.00041137,6.27e-05,0.0,0 STARLINK-5119,1 53986U 22125Y   24018.62780655  .00006270  00000-0  41137-3 0  9991,2 53986  53.2162 110.1203 0001499 106.3994 253.7163 15.08866185 71761,6917.8,95.436,540.702,538.628,0.0
53986.0,STARLINK-5119,PAYLOAD,2024-01-19 11:44:04,15.08840766,0.0001346,53.2168,106.2568,98.2767,261.8378,-5.0418e-05,-1.09e-05,0.0,0 STARLINK-5119,1 53986U 22125Y   24019.48893772 -.00001090  00000-0 -50418-4 0  9991,2 53986  53.2168 106.2568 0001346  98.2767 261.8378 15.08840766 71894,6917.878,95.438,540.674,538.812,0.0
53986.0,STARLINK-5119,PAYLOAD,2024-01-19 13:19:27,15.08841867,0.000132,53.2167,105.9597,88.9566,271.1577,-2.2287e-05,-6.43e-06,0.0,0 STARLINK-5119,1 53986U 22125Y   24019.55517767 -.00000643  00000-0 -22287-4 0  9992,2 53986  53.2167 105.9597 0001320  88.9566 271.1577 15.08841867 71827,6917.875,95.437,540.653,538.827,0.0
53986.0,STARLINK-5119,PAYLOAD,2024-01-20 11:34:51,15.08840276,0.000177,53.2162,101.799,67.6535,292.4644,-0.00016643,-2.936e-05,0.0,0 STARLINK-5119,1 53986U 22125Y   24020.48254334 -.00002936  00000-0 -16643-3 0  9999,2 53986  53.2162 101.7990 0001770  67.6535 292.4644 15.08840276 71961,6917.88,95.438,540.969,538.52,0.0
53986.0,STARLINK-5119,PAYLOAD,2024-01-21 11:25:39,15.08842566,0.0001653,53.216,97.3378,71.6867,288.4305,0.00025896,3.836e-05,0.0,0 STARLINK-5119,1 53986U 22125Y   24021.47614585  .00003836  00000-0  25896-3 0  9995,2 53986  53.2160  97.3378 0001653  71.6867 288.4305 15.08842566 72113,6917.873,95.437,540.881,538.594,0.0
53986.0,STARLINK-5119,PAYLOAD,2024-01-22 11:16:25,15.08845376,0.000156,53.216,92.8778,80.2761,279.8408,0.00010316,1.354e-05,0.0,0 STARLINK-5119,1 53986U 22125Y   24022.46974535  .00001354  00000-0  10316-3 0  9993,2 53986  53.2160  92.8778 0001560  80.2761 279.8408 15.08845376 72348,6917.864,95.437,540.808,538.65,0.0
53986.0,STARLINK-5119,PAYLOAD,2024-01-23 11:07:13,15.08844208,0.0001542,53.217,88.4152,97.4357,262.6811,8.6016e-06,-1.51e-06,0.0,0 STARLINK-5119,1 53986U 22125Y   24023.46334601 -.00000151  00000-0  86016-5 0  9995,2 53986  53.2170  88.4152 0001542  97.4357 262.6811 15.08844208 72494,6917.868,95.437,540.799,538.666,0.0
53986.0,STARLINK-5119,PAYLOAD,2024-01-24 09:22:37,15.08855011,0.0001641,53.2176,84.2502,115.0662,245.05,-0.00027638,-4.686e-05,0.0,0 STARLINK-5119,1 53986U 22125Y   24024.39070911 -.00004686  00000-0 -27638-3 0  9990,2 53986  53.2176  84.2502 0001641 115.0662 245.0500 15.08855011 72550,6917.835,95.437,540.835,538.564,0.0
53986.0,STARLINK-5119,PAYLOAD,2024-01-25 09:13:24,15.08844441,0.0001711,53.2176,79.7924,116.3279,243.7889,2.5085e-05,1.11e-06,0.0,0 STARLINK-5119,1 53986U 22125Y   24025.38431070  .00000111  00000-0  25085-4 0  9999,2 53986  53.2176  79.7924 0001711 116.3279 243.7889 15.08844441 72788,6917.867,95.437,540.915,538.548,0.0
53986.0,STARLINK-5119,PAYLOAD,2024-01-26 10:39:34,15.08844495,0.000142,53.217,75.0347,90.629,269.4865,0.00013766,1.904e-05,0.0,0 STARLINK-5119,1 53986U 22125Y   24026.44415127  .00001904  00000-0  13766-3 0  9995,2 53986  53.2170  75.0347 0001420  90.6290 269.4865 15.08844495 72940,6917.867,95.437,540.714,538.749,0.0
53986.0,STARLINK-5119,PAYLOAD,2024-01-27 12:05:45,15.08822533,0.0001926,53.2186,70.2738,68.6185,291.5012,0.00040987,6.238e-05,0.0,0 STARLINK-5119,1 53986U 22125Y   24027.50400045  .00006238  00000-0  40987-3 0  9996,2 53986  53.2186  70.2738 0001926  68.6185 291.5012 15.08822533 73105,6917.934,95.439,541.131,538.466,0.0
53986.0,STARLINK-5119,PAYLOAD,2024-01-28 08:45:46,15.08839813,0.0001738,53.2177,66.4141,78.9755,281.1432,1.5316e-05,-4.4e-07,0.0,0 STARLINK-5119,1 53986U 22125Y   24028.36511892 -.00000044  00000-0  15316-4 0  9993,2 53986  53.2177  66.4141 0001738  78.9755 281.1432 15.08839813 73232,6917.881,95.438,540.948,538.544,0.0
53986.0,STARLINK-5119,PAYLOAD,2024-01-28 11:56:32,15.08843255,0.0001841,53.2181,65.8175,91.0386,269.0817,1.9514e-05,2.2e-07,0.0,0 STARLINK-5119,1 53986U 22125Y   24028.49759557  .00000022  00000-0  19514-4 0  9998,2 53986  53.2181  65.8175 0001841  91.0386 269.0817 15.08843255 73178,6917.87,95.437,541.009,538.462,0.0
53986.0,STARLINK-5119,PAYLOAD,2024-01-29 08:36:32,15.08847267,0.0001611,53.2169,61.9507,106.6717,253.4452,7.0993e-05,8.42e-06,0.0,0 STARLINK-5119,1 53986U 22125Y   24029.35871103  .00000842  00000-0  70993-4 0  9994,2 53986  53.2169  61.9507 0001611 106.6717 253.4452 15.08847267 73388,6917.858,95.437,540.838,538.609,0.0
53986.0,STARLINK-5119,PAYLOAD,2024-01-30 11:38:06,15.08841611,0.0001705,53.2171,56.8949,113.4176,246.6996,6.099e-05,6.83e-06,0.0,0 STARLINK-5119,1 53986U 22125Y   24030.48479493  .00000683  00000-0  60990-4 0  9995,2 53986  53.2171  56.8949 0001705 113.4176 246.6996 15.08841611 73556,6917.875,95.437,540.92,538.561,0.0
53986.0,STARLINK-5119,PAYLOAD,2024-01-31 06:42:44,15.08838629,0.000151,53.217,53.3268,96.312,263.8044,7.6383e-06,-1.66e-06,0.0,0 STARLINK-5119,1 53986U 22125Y   24031.27968005 -.00000166  00000-0  76383-5 0  9996,2 53986  53.2170  53.3268 0001510  96.3120 263.8044 15.08838629 73676,6917.885,95.438,540.794,538.705,0.0
53986.0,STARLINK-5119,PAYLOAD,2024-02-01 09:44:17,15.08838461,0.0001636,53.2176,48.2696,107.6247,252.4924,4.923e-05,4.96e-06,0.0,0 STARLINK-5119,1 53986U 22125Y   24032.40576003  .00000496  00000-0  49230-4 0  9990,2 53986  53.2176  48.2696 0001636 107.6247 252.4924 15.08838461 73849,6917.885,95.438,540.882,538.618,0.0
53986.0,STARLINK-5119,PAYLOAD,2024-02-02 09:35:04,15.08839818,0.0001532,53.218,43.8129,95.1126,265.0041,8.4187e-05,1.052e-05,0.0,0 STARLINK-5119,1 53986U 22125Y   24033.39936135  .00001052  00000-0  84187-4 0  9994,2 53986  53.2180  43.8129 0001532  95.1126 265.0041 15.08839818 73913,6917.881,95.438,540.806,538.686,0.0
53986.0,STARLINK-5119,PAYLOAD,2024-02-02 23:53:31,15.08857962,0.0001296,53.2161,41.1317,74.5004,285.6131,0.00014783,2.067e-05,0.0,0 STARLINK-5119,1 53986U 22125Y   24033.99550442  .00002067  00000-0  14783-3 0  9994,2 53986  53.2161  41.1317 0001296  74.5004 285.6131 15.08857962 74082,6917.825,95.436,540.587,538.794,0.0
53986.0,STARLINK-5119,PAYLOAD,2024-02-03 09:25:52,15.08832184,0.0001268,53.2178,39.3542,97.5801,262.5335,-3.3991e-05,-8.29e-06,0.0,0 STARLINK-5119,1 53986U 22125Y   24034.39296390 -.00000829  00000-0 -33991-4 0  9997,2 53986  53.2178  39.3542 0001268  97.5801 262.5335 15.08832184 74144,6917.904,95.438,540.646,538.892,0.0
53986.0,STARLINK-5119,PAYLOAD,2024-02-04 09:16:38,15.08844526,0.0001534,53.2166,34.8929,67.3401,292.7753,4.1129e-05,3.67e-06,0.0,0 STARLINK-5119,1 53986U 22125Y   24035.38655876  .00000367  00000-0  41129-4 0  9992,2 53986  53.2166  34.8929 0001534  67.3401 292.7753 15.08844526 74295,6917.867,95.437,540.793,538.67,0.0
53986.0,STARLINK-5119,PAYLOAD,2024-02-05 04:21:18,15.08756933,0.0002111,53.2166,31.323,71.8293,288.2929,0.0012197,0.00019133,0.0,0 STARLINK-5119,1 53986U 22125Y   24036.18146005  .00019133  00000-0  12197-2 0  9992,2 53986  53.2166  31.3230 0002111  71.8293 288.2929 15.08756933 74416,6918.134,95.443,541.46,538.539,0.0
53986.0,STARLINK-5119,PAYLOAD,2024-02-05 05:56:39,15.08845978,0.0001693,53.2164,31.0252,67.4702,292.6469,9.5123e-06,-1.37e-06,0.0,0 STARLINK-5119,1 53986U 22125Y   24036.24767713 -.00000137  00000-0  95123-5 0  9992,2 53986  53.2164  31.0252 0001693  67.4702 292.6469 15.08845978 74422,6917.862,95.437,540.898,538.556,0.0
